[{"OBJECT_NAME":"STARLINK-34270","OBJECT_ID":"2025-126M","EPOCH":"2026-03-09T07:15:07.658208","MEAN_MOTION":14.98210646,"ECCENTRICITY":0.00022033,"INCLINATION":70.0042,"RA_OF_ASC_NODE":35.442,"ARG_OF_PERICENTER":302.3611,"MEAN_ANOMALY":57.7335,"EPHEMERIS_TYPE":0,"CLASSIFICATION_TYPE":"U","NORAD_CAT_ID":64355,"ELEMENT_SET_NO":999,"REV_AT_EPOCH":4183,"BSTAR":0.0035760405,"MEAN_MOTION_DOT":0.00042703,"MEAN_MOTION_DDOT":0},{"OBJECT_NAME":"COSMOS 2251 DEB","OBJECT_ID":"1993-036BTL","EPOCH":"2026-03-05T23:04:31.790784","MEAN_MOTION":14.99909335,"ECCENTRICITY":0.00032115,"INCLINATION":74.0103,"RA_OF_ASC_NODE":259.8781,"ARG_OF_PERICENTER":226.5417,"MEAN_ANOMALY":133.5503,"EPHEMERIS_TYPE":0,"CLASSIFICATION_TYPE":"U","NORAD_CAT_ID":38220,"ELEMENT_SET_NO":999,"REV_AT_EPOCH":72615,"BSTAR":0.0034301399,"MEAN_MOTION_DOT":0.00042797,"MEAN_MOTION_DDOT":0}]
